{"type": "FeatureCollection", "features": [ {"type": "Feature", "properties": {"norad_id": 42741, "name": "EUTELSAT 172B", "group": "eutelsat", "lat": 0.001223951457793788, "lon": 102.06184438136982, "alt_km": 35786.51896768368, "timestamp": "2025-12-27T12:55:14.158765+00:00", "meta": {"OBJECT_NAME": "EUTELSAT 172B", "OBJECT_ID": "2017-029B", "EPOCH": "2025-12-27T04:00:38.552832", "MEAN_MOTION": 1.00270223, "ECCENTRICITY": 1.134e-05, "INCLINATION": 0.0381, "RA_OF_ASC_NODE": 160.9099, "ARG_OF_PERICENTER": 32.6736, "MEAN_ANOMALY": 134.4747, "EPHEMERIS_TYPE": 0, "CLASSIFICATION_TYPE": "U", "NORAD_CAT_ID": 42741, "ELEMENT_SET_NO": 999, "REV_AT_EPOCH": 3200, "BSTAR": 0, "MEAN_MOTION_DOT": 1.7e-07, "MEAN_MOTION_DDOT": 0}, "tle": {"line1": "1 42741U 17029B   25361.16711288  .00000017  00000+0  00000+0 0  9994", "line2": "2 42741   0.0381 160.9099 0000113  32.6736 134.4747  1.00270223 32000"}}, "geometry": {"type": "Point", "coordinates": [102.06184438136982, 0.001223951457793788]}}, {"type": "Feature", "properties": {"norad_id": 44334, "name": "EUTELSAT 7C", "group": "eutelsat", "lat": 0.04679343544308358, "lon": -62.919561522017695, "alt_km": 35770.709697845065, "timestamp": "2025-12-27T12:55:14.158782+00:00", "meta": {"OBJECT_NAME": "EUTELSAT 7C", "OBJECT_ID": "2019-034B", "EPOCH": "2025-12-27T06:13:38.544960", "MEAN_MOTION": 1.00278899, "ECCENTRICITY": 0.00036928, "INCLINATION": 0.0728, "RA_OF_ASC_NODE": 180.5045, "ARG_OF_PERICENTER": 85.2079, "MEAN_ANOMALY": 290.6728, "EPHEMERIS_TYPE": 0, "CLASSIFICATION_TYPE": "U", "NORAD_CAT_ID": 44334, "ELEMENT_SET_NO": 999, "REV_AT_EPOCH": 511, "BSTAR": 0, "MEAN_MOTION_DOT": 7.2e-07, "MEAN_MOTION_DDOT": 0}, "tle": {"line1": "1 44334U 19034B   25361.25947390  .00000072  00000+0  00000+0 0  9998", "line2": "2 44334   0.0728 180.5045 0003692  85.2079 290.6728  1.00278899  5116"}}, "geometry": {"type": "Point", "coordinates": [-62.919561522017695, 0.04679343544308358]}}, {"type": "Feature", "properties": {"norad_id": 44624, "name": "EUTELSAT 5 WEST B", "group": "eutelsat", "lat": -0.07325600286319776, "lon": -74.92538191491404, "alt_km": 35772.614662403284, "timestamp": "2025-12-27T12:55:14.158795+00:00", "meta": {"OBJECT_NAME": "EUTELSAT 5 WEST B", "OBJECT_ID": "2019-067A", "EPOCH": "2025-12-27T04:42:38.441664", "MEAN_MOTION": 1.00271215, "ECCENTRICITY": 0.00032747, "INCLINATION": 0.0618, "RA_OF_ASC_NODE": 348.7107, "ARG_OF_PERICENTER": 285.9376, "MEAN_ANOMALY": 246.9417, "EPHEMERIS_TYPE": 0, "CLASSIFICATION_TYPE": "U", "NORAD_CAT_ID": 44624, "ELEMENT_SET_NO": 999, "REV_AT_EPOCH": 2271, "BSTAR": 0, "MEAN_MOTION_DOT": -2e-07, "MEAN_MOTION_DDOT": 0}, "tle": {"line1": "1 44624U 19067A   25361.19627826 -.00000020  00000+0  00000+0 0  9992", "line2": "2 44624   0.0618 348.7107 0003274 285.9376 246.9417  1.00271215 22717"}}, "geometry": {"type": "Point", "coordinates": [-74.92538191491404, -0.07325600286319776]}}, {"type": "Feature", "properties": {"norad_id": 45027, "name": "EUTELSAT KONNECT", "group": "eutelsat", "lat": -0.04222953608399568, "lon": -62.705346836430415, "alt_km": 35775.41741293692, "timestamp": "2025-12-27T12:55:14.158806+00:00", "meta": {"OBJECT_NAME": "EUTELSAT KONNECT", "OBJECT_ID": "2020-005B", "EPOCH": "2025-12-27T06:13:38.544960", "MEAN_MOTION": 1.00279327, "ECCENTRICITY": 0.00020632, "INCLINATION": 0.0663, "RA_OF_ASC_NODE": 94.1475, "ARG_OF_PERICENTER": 191.175, "MEAN_ANOMALY": 271.2936, "EPHEMERIS_TYPE": 0, "CLASSIFICATION_TYPE": "U", "NORAD_CAT_ID": 45027, "ELEMENT_SET_NO": 999, "REV_AT_EPOCH": 2261, "BSTAR": 0, "MEAN_MOTION_DOT": 7.3e-07, "MEAN_MOTION_DDOT": 0}, "tle": {"line1": "1 45027U 20005B   25361.25947390  .00000073  00000+0  00000+0 0  9999", "line2": "2 45027   0.0663  94.1475 0002063 191.1750 271.2936  1.00279327 22612"}}, "geometry": {"type": "Point", "coordinates": [-62.705346836430415, -0.04222953608399568]}}, {"type": "Feature", "properties": {"norad_id": 49056, "name": "EUTELSAT QUANTUM", "group": "eutelsat", "lat": -0.0229766295598419, "lon": -22.197577576572193, "alt_km": 35776.96410895387, "timestamp": "2025-12-27T12:55:14.158818+00:00", "meta": {"OBJECT_NAME": "EUTELSAT QUANTUM", "OBJECT_ID": "2021-069B", "EPOCH": "2025-12-27T01:14:43.109376", "MEAN_MOTION": 1.00271592, "ECCENTRICITY": 0.00036516, "INCLINATION": 0.0149, "RA_OF_ASC_NODE": 31.5305, "ARG_OF_PERICENTER": 252.4924, "MEAN_ANOMALY": 238.1442, "EPHEMERIS_TYPE": 0, "CLASSIFICATION_TYPE": "U", "NORAD_CAT_ID": 49056, "ELEMENT_SET_NO": 999, "REV_AT_EPOCH": 1620, "BSTAR": 0, "MEAN_MOTION_DOT": 1.48e-06, "MEAN_MOTION_DDOT": 0}, "tle": {"line1": "1 49056U 21069B   25361.05188784  .00000148  00000+0  00000+0 0  9991", "line2": "2 49056   0.0149  31.5305 0003651 252.4924 238.1442  1.00271592 16200"}}, "geometry": {"type": "Point", "coordinates": [-22.197577576572193, -0.0229766295598419]}}, {"type": "Feature", "properties": {"norad_id": 53765, "name": "EUTELSAT KONNECT VHTS", "group": "eutelsat", "lat": -0.031749153123648295, "lon": -67.2086353425308, "alt_km": 35778.23494112185, "timestamp": "2025-12-27T12:55:14.158830+00:00", "meta": {"OBJECT_NAME": "EUTELSAT KONNECT VHTS", "OBJECT_ID": "2022-110A", "EPOCH": "2025-12-26T23:19:08.450112", "MEAN_MOTION": 1.00268307, "ECCENTRICITY": 0.00027888, "INCLINATION": 0.0593, "RA_OF_ASC_NODE": 98.4997, "ARG_OF_PERICENTER": 152.36, "MEAN_ANOMALY": 197.3421, "EPHEMERIS_TYPE": 0, "CLASSIFICATION_TYPE": "U", "NORAD_CAT_ID": 53765, "ELEMENT_SET_NO": 999, "REV_AT_EPOCH": 510, "BSTAR": 0, "MEAN_MOTION_DOT": 3.9e-07, "MEAN_MOTION_DDOT": 0}, "tle": {"line1": "1 53765U 22110A   25360.97162558  .00000039  00000+0  00000+0 0  9991", "line2": "2 53765   0.0593  98.4997 0002788 152.3600 197.3421  1.00268307  5103"}}, "geometry": {"type": "Point", "coordinates": [-67.2086353425308, -0.031749153123648295]}}, {"type": "Feature", "properties": {"norad_id": 54048, "name": "EUTELSAT HOTBIRD 13F", "group": "eutelsat", "lat": -0.00500193917692449, "lon": -56.9699742036648, "alt_km": 35780.35488282215, "timestamp": "2025-12-27T12:55:14.158842+00:00", "meta": {"OBJECT_NAME": "EUTELSAT HOTBIRD 13F", "OBJECT_ID": "2022-134A", "EPOCH": "2025-12-26T22:46:38.586144", "MEAN_MOTION": 1.00271009, "ECCENTRICITY": 0.00023679, "INCLINATION": 0.0512, "RA_OF_ASC_NODE": 291.2358, "ARG_OF_PERICENTER": 65.5103, "MEAN_ANOMALY": 93.5854, "EPHEMERIS_TYPE": 0, "CLASSIFICATION_TYPE": "U", "NORAD_CAT_ID": 54048, "ELEMENT_SET_NO": 999, "REV_AT_EPOCH": 1165, "BSTAR": 0, "MEAN_MOTION_DOT": 1.09e-06, "MEAN_MOTION_DDOT": 0}, "tle": {"line1": "1 54048U 22134A   25360.94905771  .00000109  00000+0  00000+0 0  9999", "line2": "2 54048   0.0512 291.2358 0002367  65.5103  93.5854  1.00271009 11656"}}, "geometry": {"type": "Point", "coordinates": [-56.9699742036648, -0.00500193917692449]}}, {"type": "Feature", "properties": {"norad_id": 54225, "name": "EUTELSAT HOTBIRD 13G", "group": "eutelsat", "lat": 0.026071022390580328, "lon": -56.97272699384694, "alt_km": 35790.40239383971, "timestamp": "2025-12-27T12:55:14.158854+00:00", "meta": {"OBJECT_NAME": "EUTELSAT HOTBIRD 13G", "OBJECT_ID": "2022-146A", "EPOCH": "2025-12-26T22:46:38.586144", "MEAN_MOTION": 1.00258057, "ECCENTRICITY": 0.00022142, "INCLINATION": 0.0501, "RA_OF_ASC_NODE": 221.1292, "ARG_OF_PERICENTER": 348.4298, "MEAN_ANOMALY": 240.7501, "EPHEMERIS_TYPE": 0, "CLASSIFICATION_TYPE": "U", "NORAD_CAT_ID": 54225, "ELEMENT_SET_NO": 999, "REV_AT_EPOCH": 573, "BSTAR": 0, "MEAN_MOTION_DOT": 1.07e-06, "MEAN_MOTION_DDOT": 0}, "tle": {"line1": "1 54225U 22146A   25360.94905771  .00000107  00000+0  00000+0 0  9997", "line2": "2 54225   0.0501 221.1292 0002214 348.4298 240.7501  1.00258057  5734"}}, "geometry": {"type": "Point", "coordinates": [-56.97272699384694, 0.026071022390580328]}}, {"type": "Feature", "properties": {"norad_id": 54259, "name": "EUTELSAT 10B", "group": "eutelsat", "lat": -0.04051413132936168, "lon": -59.921871321156225, "alt_km": 35787.732114770675, "timestamp": "2025-12-27T12:55:14.158865+00:00", "meta": {"OBJECT_NAME": "EUTELSAT 10B", "OBJECT_ID": "2022-157A", "EPOCH": "2025-12-26T23:21:15.746688", "MEAN_MOTION": 1.0026978, "ECCENTRICITY": 3.879e-05, "INCLINATION": 0.0595, "RA_OF_ASC_NODE": 95.7073, "ARG_OF_PERICENTER": 337.8466, "MEAN_ANOMALY": 22.488, "EPHEMERIS_TYPE": 0, "CLASSIFICATION_TYPE": "U", "NORAD_CAT_ID": 54259, "ELEMENT_SET_NO": 999, "REV_AT_EPOCH": 1130, "BSTAR": 0, "MEAN_MOTION_DOT": 9e-07, "MEAN_MOTION_DDOT": 0}, "tle": {"line1": "1 54259U 22157A   25360.97309892  .00000090  00000+0  00000+0 0  9992", "line2": "2 54259   0.0595  95.7073 0000387 337.8466  22.4880  1.00269780 11304"}}, "geometry": {"type": "Point", "coordinates": [-59.921871321156225, -0.04051413132936168]}}, {"type": "Feature", "properties": {"norad_id": 59346, "name": "EUTELSAT 36D", "group": "eutelsat", "lat": -0.03075455371979367, "lon": -34.029077905366364, "alt_km": 35779.86588851521, "timestamp": "2025-12-27T12:55:14.158876+00:00", "meta": {"OBJECT_NAME": "EUTELSAT 36D", "OBJECT_ID": "2024-059A", "EPOCH": "2025-12-27T00:47:38.503392", "MEAN_MOTION": 1.00278293, "ECCENTRICITY": 0.00010384, "INCLINATION": 0.0199, "RA_OF_ASC_NODE": 25.5491, "ARG_OF_PERICENTER": 292.1883, "MEAN_ANOMALY": 185.8304, "EPHEMERIS_TYPE": 0, "CLASSIFICATION_TYPE": "U", "NORAD_CAT_ID": 59346, "ELEMENT_SET_NO": 999, "REV_AT_EPOCH": 642, "BSTAR": 0, "MEAN_MOTION_DOT": 0, "MEAN_MOTION_DDOT": 0}, "tle": {"line1": "1 59346U 24059A   25361.03308453  .00000000  00000+0  00000+0 0  9998", "line2": "2 59346   0.0199  25.5491 0001038 292.1883 185.8304  1.00278293  6422"}}, "geometry": {"type": "Point", "coordinates": [-34.029077905366364, -0.03075455371979367]}}]}